STARLINK-2151           
1 48556U 21041D   22199.51441842 -.00001171  00000+0 -59766-4 0  9996
2 48556  53.0541 353.0215 0001387  72.4217 287.6924 15.06396260 65028
STARLINK-2155           
1 48557U 21041E   22199.58537499  .00000225  00000+0  34007-4 0  9996
2 48557  53.0545 342.6904 0001259 100.4569 259.6562 15.06398020 64721
STARLINK-2166           
1 48558U 21041F   22199.51534302 -.00002012  00000+0 -11623-3 0  9996
2 48558  53.0560 343.0111 0001427  92.9395 267.1757 15.06390430 65114
STARLINK-2167           
1 48559U 21041G   22199.55126110 -.00002409  00000+0 -14291-3 0  9999
2 48559  53.0549 342.8373 0001363  85.7149 274.3996 15.06389867 64717
STARLINK-2186           
1 48561U 21041J   22199.43336313  .00001064  00000+0  90319-4 0  9997
2 48561  53.0538 313.6489 0001286  98.6727 261.4408 15.06395325 65128
STARLINK-2187           
1 48562U 21041K   22199.09513916 -.00000700  00000+0 -28115-4 0  9999
2 48562  53.0549 344.8871 0001414  98.3908 261.7242 15.06400608 64650
STARLINK-2188           
1 48563U 21041L   22199.37897231 -.00002402  00000+0 -14241-3 0  9991
2 48563  53.0547 343.6155 0001409  74.0875 286.0270 15.06397243 64694
STARLINK-2190           
1 48564U 21041M   22199.43794130 -.00005470  00000+0 -34874-3 0  9995
2 48564  53.0555 343.3643 0001452  87.3685 272.7470 15.06383815 65108
STARLINK-2191           
1 48565U 21041N   22199.36695915 -.00001857  00000+0 -10582-3 0  9994
2 48565  53.0550 343.6620 0001780  85.6793 274.4399 15.06396861 64694
STARLINK-2214           
1 48566U 21041P   22199.52178796 -.00000598  00000+0 -21230-4 0  9990
2 48566  53.0550 352.9462 0001362  80.8457 279.2686 15.06387970 64976
STARLINK-2215           
1 48567U 21041Q   22199.53652898  .00001065  00000+0  90367-4 0  9997
2 48567  53.0552 352.9186 0001448  85.4767 274.6387 15.06400183 64577
STARLINK-2217           
1 48568U 21041R   22199.41582598 -.00002129  00000+0 -12408-3 0  9997
2 48568  53.0551 343.4530 0001318  81.4529 278.6609 15.06398392 65090
STARLINK-2219           
1 48569U 21041S   22199.37527889  .00000176  00000+0  30742-4 0  9995
2 48569  53.0551 343.6362 0001392  90.2112 269.9037 15.06398266 65092
STARLINK-2220           
1 48570U 21041T   22199.56233913 -.00001136  00000+0 -57421-4 0  9992
2 48570  53.0564 352.7962 0001474  80.6864 279.4291 15.06391133 64579
STARLINK-2221           
1 48571U 21041U   22199.56971695 -.00000908  00000+0 -42048-4 0  9994
2 48571  53.0566 352.7714 0001545  97.2190 262.8974 15.06390990 64587
STARLINK-2222           
1 48572U 21041V   22199.56602211 -.00000527  00000+0 -16466-4 0  9992
2 48572  53.0543 352.7776 0001294  96.1454 263.9682 15.06406531 64580
STARLINK-2224           
1 48573U 21041W   22199.61117797 -.00001059  00000+0 -52185-4 0  9998
2 48573  53.0557 342.5629 0001515  84.4602 275.6560 15.06397388 64721
STARLINK-2225           
1 48574U 21041X   22199.58077575  .00000062  00000+0  23029-4 0  9990
2 48574  53.0550 312.7951 0001459  72.3905 287.7243 15.06399087 65148
STARLINK-2227           
1 48575U 21041Y   22199.53012142 -.00000577  00000+0 -19844-4 0  9998
2 48575  53.0543 303.2540 0001467  83.9598 276.1558 15.06397167 65727
STARLINK-2228           
1 48576U 21041Z   22199.59690529 -.00002062  00000+0 -11958-3 0  9994
2 48576  53.0602 317.6201 0001461  75.1032 285.0119 15.06388894 65085
STARLINK-2231           
1 48577U 21041AA  22199.60380598 -.00001423  00000+0 -76661-4 0  9992
2 48577  53.0559 342.5998 0001426  76.8399 283.2749 15.06400705 64727
STARLINK-2232           
1 48578U 21041AB  22199.50065857  .00000585  00000+0  58150-4 0  9999
2 48578  53.0562 343.5847 0001262  76.4218 283.6912 15.06392548 64709
STARLINK-2233           
1 48579U 21041AC  22199.52640074  .00001782  00000+0  13850-3 0  9999
2 48579  53.0548 342.9608 0001562  80.7432 279.3734 15.06400659 64719
STARLINK-2234           
1 48580U 21041AD  22199.29370670 -.00002211  00000+0 -12954-3 0  9991
2 48580  53.0548 319.0130 0001664  90.3046 269.8133 15.06399708 65032
STARLINK-2235           
1 48581U 21041AE  22199.58676118  .00001746  00000+0  13609-3 0  9998
2 48581  53.0537 307.6904 0001355  78.0383 282.0758 15.06392760 65678
STARLINK-2236           
1 48582U 21041AF  22199.56835000 -.00000459  00000+0 -11912-4 0  9992
2 48582  53.0558 307.9219 0001414  83.7864 276.3286 15.06396719 65217
STARLINK-2237           
1 48583U 21041AG  22199.44070169 -.00000470  00000+0 -12696-4 0  9990
2 48583  53.0544 353.3399 0000992  83.3083 276.8019 15.06396871 64561
STARLINK-2238           
1 48584U 21041AH  22199.61394228  .00001020  00000+0  87422-4 0  9994
2 48584  53.0552 352.5701 0001369  83.4837 276.6308 15.06380660 64586
STARLINK-2240           
1 48585U 21041AJ  22199.49230335  .00000634  00000+0  61475-4 0  9999
2 48585  53.0550 353.1187 0001468  91.6649 268.4508 15.06396327 64568
STARLINK-2241           
1 48586U 21041AK  22198.75511476  .00001400  00000+0  11284-3 0  9990
2 48586  53.0550 356.4210 0001460  84.0979 276.0177 15.06397117 64459
STARLINK-2242           
1 48587U 21041AL  22199.55496805 -.00000780  00000+0 -33495-4 0  9999
2 48587  53.0564 352.8298 0001087  74.9879 285.1230 15.06393479 64574
STARLINK-2244           
1 48588U 21041AM  22199.53377221 -.00002588  00000+0 -15496-3 0  9996
2 48588  53.0555 342.9250 0001104  87.1373 272.9743 15.06394397 64717
STARLINK-2245           
1 48589U 21041AN  22199.53008891 -.00002089  00000+0 -12141-3 0  9991
2 48589  53.0558 342.9479 0001345  85.0729 275.0413 15.06390037 64718
STARLINK-2248           
1 48591U 21041AQ  22199.11631430 -.00002848  00000+0 -17241-3 0  9998
2 48591  53.0558 344.8066 0001424  82.7901 277.3250 15.06393362 65559
STARLINK-2249           
1 48592U 21041AR  22199.52453509  .00000397  00000+0  45520-4 0  9990
2 48592  53.0559 352.9945 0001523  73.1882 286.9274 15.06398862 64572
STARLINK-2250           
1 48593U 21041AS  22199.52915496  .00002818  00000+0  20796-3 0  9996
2 48593  53.0550 352.9513 0001228  79.6947 280.4180 15.06405428 64572
STARLINK-2251           
1 48594U 21041AT  22199.42504637 -.00001713  00000+0 -96106-4 0  9991
2 48594  53.0557 323.4974 0001435  98.1937 261.9214 15.06399215 64982
STARLINK-2252           
1 48595U 21041AU  22199.44438935 -.00001423  00000+0 -76638-4 0  9997
2 48595  53.0562 353.3262 0001060  80.6561 279.4548 15.06397515 65834
STARLINK-2253           
1 48596U 21041AV  22199.53284913 -.00000687  00000+0 -27196-4 0  9999
2 48596  53.0557 352.9338 0001560  83.3912 276.7254 15.06397232 65035
STARLINK-2255           
1 48597U 21041AW  22199.60656442  .00004212  00000+0  30150-3 0  9997
2 48597  53.0539 352.5981 0001431  94.0120 266.1032 15.06401263 65850
STARLINK-2256           
1 48598U 21041AX  22199.61025925 -.00001284  00000+0 -67304-4 0  9995
2 48598  53.0561 352.5793 0001429  96.6852 263.4300 15.06391359 65047
STARLINK-2274           
1 48599U 21041AY  22199.57016794 -.00001103  00000+0 -55184-4 0  9998
2 48599  53.0567 327.7632 0001222  73.7733 286.3391 15.06405464 66201
STARLINK-2275           
1 48600U 21041AZ  22199.60749707 -.00003016  00000+0 -18372-3 0  9994
2 48600  53.0560 342.5825 0001505 113.9817 246.1329 15.06390698 65992
STARLINK-2713           
1 48602U 21041BB  22199.60335233  .00001255  00000+0  10312-3 0  9998
2 48602  53.0544 327.6180 0001366  70.1973 289.9164 15.06395753 66198
STARLINK-2714           
1 48603U 21041BC  22199.44989482 -.00001295  00000+0 -68094-4 0  9999
2 48603  53.0549 323.2893 0001534  80.4701 279.6461 15.06394694 66253
STARLINK-2757           
1 48604U 21041BD  22199.51810950 -.00003429  00000+0 -21146-3 0  9998
2 48604  53.0551 353.0000 0001502  72.4642 287.6511 15.06391251 65843
CAPELLA-6-WHITNEY       
1 48605U 21041BE  22199.30470776  .00001605  00000+0  15517-3 0  9991
2 48605  53.0362  14.9368 0015303 134.9352 225.2877 14.98314661 64224
TYVAK-0130              
1 48606U 21041BF  22199.47097650  .00003043  00000+0  27460-3 0  9994
2 48606  53.0328  17.1284 0015333 132.8729 227.3546 14.98277494 64203
SBIRS GEO-5 (USA 315)   
1 48618U 21042A   22199.04494023  .00000107  00000+0  00000+0 0  9991
2 48618   7.2964 326.1832 0003025 136.4679 230.2672  1.00272099  4420
TDO-3                   
1 48619U 21042B   22199.45833165  .00760739 -77646-5  76661-3 0  9992
2 48619  26.1524 352.2586 1010527 255.7699  92.8641 13.97384775 50605
TDO-4                   
1 48620U 21042C   22199.58871512  .00770077 -78388-5  73971-3 0  9997
2 48620  26.1270 326.5831 0946720 299.5908  51.3548 14.12344767 50985
HAIYANG-2D              
1 48621U 21043A   22199.59066680 -.00000019  00000+0  56646-4 0  9995
2 48621  65.9976 263.9050 0011271 272.6879  87.2908 13.83410099 58840
SPACEBEE-65             
1 48626U 21006ES  22199.38433528  .00023579  00000+0  95345-3 0  9998
2 48626  97.2054 246.6511 0014231 141.4203 218.8055 15.24629209 82117
SPACEBEE-64             
1 48627U 21006ET  22199.10872217  .00026599  00000+0  10699-2 0  9994
2 48627  97.2055 246.4147 0014045 141.9633 218.2600 15.24784089 82070
SPACEBEE-66             
1 48628U 21006EU  22199.08574655  .00025683  00000+0  10485-2 0  9993
2 48628  97.2053 246.2924 0014182 142.5220 217.7009 15.24290785 82062
SPACEBEE-67             
1 48629U 21006EV  22199.09629464  .00024965  00000+0  10232-2 0  9996
2 48629  97.2051 246.2788 0014204 143.0778 217.1440 15.24164662 82065
SPACEBEE-68             
1 48630U 21006EW  22199.37538579  .00021658  00000+0  89208-3 0  9991
2 48630  97.2052 246.5115 0014392 141.9900 218.2356 15.24023831 82102
SPACEBEE-69             
1 48631U 21006EX  22199.39023870  .00021963  00000+0  90868-3 0  9990
2 48631  97.2056 246.4964 0014505 141.9878 218.2386 15.23868845 82102
SPACEBEE-70             
1 48632U 21006EY  22199.08197418  .00024271  00000+0  10082-2 0  9991
2 48632  97.2054 246.1534 0014590 143.2759 216.9482 15.23711823 82057
